[{"OBJECT_NAME":"PRAETORIAN SDA_610","OBJECT_ID":"2025-203J","EPOCH":"2026-03-09T13:44:25.913760","MEAN_MOTION":13.840113,"ECCENTRICITY":0.0007844,"INCLINATION":81.2976,"RA_OF_ASC_NODE":103.001,"ARG_OF_PERICENTER":103.3116,"MEAN_ANOMALY":256.8916,"EPHEMERIS_TYPE":0,"CLASSIFICATION_TYPE":"U","NORAD_CAT_ID":65573,"ELEMENT_SET_NO":999,"REV_AT_EPOCH":2491,"BSTAR":5.8921e-5,"MEAN_MOTION_DOT":7.7e-7,"MEAN_MOTION_DDOT":0},{"OBJECT_NAME":"COSMOS 1299 FUEL CORE","OBJECT_ID":"1981-081C","EPOCH":"2026-03-09T20:21:14.713344","MEAN_MOTION":13.88658471,"ECCENTRICITY":0.00226751,"INCLINATION":65.1146,"RA_OF_ASC_NODE":103.4442,"ARG_OF_PERICENTER":199.2666,"MEAN_ANOMALY":334.307,"EPHEMERIS_TYPE":0,"CLASSIFICATION_TYPE":"U","NORAD_CAT_ID":12808,"ELEMENT_SET_NO":999,"REV_AT_EPOCH":25857,"BSTAR":1.195247e-6,"MEAN_MOTION_DOT":-8.8e-7,"MEAN_MOTION_DDOT":0}]
